NORAD_CAT_ID,OBJECT_NAME,OBJECT_TYPE,EPOCH,MEAN_MOTION,ECCENTRICITY,INCLINATION,RA_OF_ASC_NODE,ARG_OF_PERICENTER,MEAN_ANOMALY,BSTAR,MEAN_MOTION_DOT,MEAN_MOTION_DDOT,TLE_LINE0,TLE_LINE1,TLE_LINE2,SEMIMAJOR_AXIS,PERIOD,APOGEE,PERIGEE,DECAYED
52561.0,STARLINK-3955,PAYLOAD,2024-03-16 13:17:36,15.0884204,0.0001584,53.2171,140.4052,105.4493,254.6674,2.9232e-05,1.77e-06,0.0,0 STARLINK-3955,1 52561U 22051AE  24076.55388894  .00000177  00000-0  29232-4 0  9995,2 52561  53.2171 140.4052 0001584 105.4493 254.6674 15.08842040102201,6917.874,95.437,540.835,538.643,0.0
52561.0,STARLINK-3955,PAYLOAD,2024-03-17 13:08:23,15.08817698,0.0001704,53.2173,135.9373,104.1579,255.9603,0.00062713,9.701e-05,0.0,0 STARLINK-3955,1 52561U 22051AE  24077.54749575  .00009701  00000-0  62713-3 0  9994,2 52561  53.2173 135.9373 0001704 104.1579 255.9603 15.08817698102356,6917.949,95.439,540.992,538.635,0.0
52561.0,STARLINK-3955,PAYLOAD,2024-03-18 03:26:51,15.08840512,0.0001521,53.2166,133.2627,105.804,254.312,4.4855e-05,4.26e-06,0.0,0 STARLINK-3955,1 52561U 22051AE  24078.14365265  .00000426  00000-0  44855-4 0  9994,2 52561  53.2166 133.2627 0001521 105.8040 254.3120 15.08840512102515,6917.879,95.438,540.796,538.692,0.0
52561.0,STARLINK-3955,PAYLOAD,2024-03-18 09:48:23,15.08844356,0.0001641,53.2165,132.0769,96.6746,263.4433,7.6055e-05,9.23e-06,0.0,0 STARLINK-3955,1 52561U 22051AE  24078.40860940  .00000923  00000-0  76055-4 0  9992,2 52561  53.2165 132.0769 0001641  96.6746 263.4433 15.08844356102485,6917.867,95.437,540.867,538.597,0.0
52561.0,STARLINK-3955,PAYLOAD,2024-03-19 09:39:10,15.08854541,0.0001832,53.2164,127.6164,122.2839,237.8331,4.6736e-05,4.56e-06,0.0,0 STARLINK-3955,1 52561U 22051AE  24079.40219981  .00000456  00000-0  46736-4 0  9990,2 52561  53.2164 127.6164 0001832 122.2839 237.8331 15.08854541102630,6917.836,95.437,540.968,538.434,0.0
52561.0,STARLINK-3955,PAYLOAD,2024-03-19 12:49:55,15.08859601,0.0001613,53.2159,127.0204,96.9764,263.1412,0.00011585,1.557e-05,0.0,0 STARLINK-3955,1 52561U 22051AE  24079.53467574  .00001557  00000-0  11585-3 0  9993,2 52561  53.2159 127.0204 0001613  96.9764 263.1412 15.08859601102728,6917.82,95.436,540.801,538.57,0.0
52561.0,STARLINK-3955,PAYLOAD,2024-03-20 07:54:36,15.08789276,0.0002282,53.2163,123.4444,107.5412,252.583,0.0016542,0.000261,0.0,0 STARLINK-3955,1 52561U 22051AE  24080.32959412  .00026100  00000-0  16542-2 0  9997,2 52561  53.2163 123.4444 0002282 107.5412 252.5830 15.08789276102840,6918.035,95.441,541.479,538.322,0.0
52561.0,STARLINK-3955,PAYLOAD,2024-03-20 12:40:44,15.08832217,0.0001965,53.2166,122.5545,111.1209,248.9994,0.00027145,4.034e-05,0.0,0 STARLINK-3955,1 52561U 22051AE  24080.52829052  .00004034  00000-0  27145-3 0  9999,2 52561  53.2166 122.5545 0001965 111.1209 248.9994 15.08832217102807,6917.904,95.438,541.129,538.41,0.0
52561.0,STARLINK-3955,PAYLOAD,2024-03-21 12:31:28,15.0887666,0.0001642,53.216,118.0981,86.6153,273.5027,0.00023684,3.487e-05,0.0,0 STARLINK-3955,1 52561U 22051AE  24081.52185572  .00003487  00000-0  23684-3 0  9997,2 52561  53.2160 118.0981 0001642  86.6153 273.5027 15.08876660103027,6917.768,95.435,540.769,538.497,0.0
52561.0,STARLINK-3955,PAYLOAD,2024-03-22 02:49:59,15.08831963,0.0001748,53.216,115.419,100.8086,259.3102,5.1686e-05,5.34e-06,0.0,0 STARLINK-3955,1 52561U 22051AE  24082.11804868  .00000534  00000-0  51686-4 0  9993,2 52561  53.2160 115.4190 0001748 100.8086 259.3102 15.08831963103114,6917.905,95.438,540.979,538.561,0.0
52561.0,STARLINK-3955,PAYLOAD,2024-03-22 09:11:31,15.08837333,0.0001585,53.2163,114.2316,93.3169,266.8005,4.0108e-05,3.5e-06,0.0,0 STARLINK-3955,1 52561U 22051AE  24082.38300695  .00000350  00000-0  40108-4 0  9994,2 52561  53.2163 114.2316 0001585  93.3169 266.8005 15.08837333103089,6917.889,95.438,540.85,538.657,0.0
52561.0,STARLINK-3955,PAYLOAD,2024-03-23 05:51:33,15.08830075,0.0001746,53.2153,110.3665,96.3428,263.7763,-0.0002839,-4.802e-05,0.0,0 STARLINK-3955,1 52561U 22051AE  24083.24413339 -.00004802  00000-0 -28390-3 0  9996,2 52561  53.2153 110.3665 0001746  96.3428 263.7763 15.08830075103287,6917.911,95.438,540.984,538.568,0.0
52561.0,STARLINK-3955,PAYLOAD,2024-03-23 18:34:37,15.08852245,0.0001827,53.2179,107.9894,92.5688,267.5513,-0.00013431,-2.426e-05,0.0,0 STARLINK-3955,1 52561U 22051AE  24083.77404700 -.00002426  00000-0 -13431-3 0  9996,2 52561  53.2179 107.9894 0001827  92.5688 267.5513 15.08852245103364,6917.843,95.437,540.972,538.444,0.0
52561.0,STARLINK-3955,PAYLOAD,2024-03-24 05:42:19,15.0884356,0.0001643,53.2161,105.9042,92.6148,267.5032,0.00036447,5.518e-05,0.0,0 STARLINK-3955,1 52561U 22051AE  24084.23773075  .00005518  00000-0  36447-3 0  9997,2 52561  53.2161 105.9042 0001643  92.6148 267.5032 15.08843560103430,6917.87,95.437,540.871,538.598,0.0
52561.0,STARLINK-3955,PAYLOAD,2024-03-24 10:28:29,15.0885766,0.0001735,53.2166,105.0125,94.0156,266.1034,0.00062907,9.743e-05,0.0,0 STARLINK-3955,1 52561U 22051AE  24084.43644760  .00009743  00000-0  62907-3 0  9991,2 52561  53.2166 105.0125 0001735  94.0156 266.1034 15.08857660103393,6917.826,95.436,540.892,538.491,0.0
52561.0,STARLINK-3955,PAYLOAD,2024-03-24 18:25:25,15.08850623,0.000222,53.2167,103.5257,84.596,275.5286,0.00047275,7.246e-05,0.0,0 STARLINK-3955,1 52561U 22051AE  24084.76765346  .00007246  00000-0  47275-3 0  9998,2 52561  53.2167 103.5257 0002220  84.5960 275.5286 15.08850623103441,6917.848,95.437,541.249,538.177,0.0
52561.0,STARLINK-3955,PAYLOAD,2024-03-25 05:33:07,15.08839058,0.0001923,53.215,101.447,86.2559,273.8653,0.00014506,2.021e-05,0.0,0 STARLINK-3955,1 52561U 22051AE  24085.23133427  .00002021  00000-0  14506-3 0  9997,2 52561  53.2150 101.4470 0001923  86.2559 273.8653 15.08839058103582,6917.883,95.438,541.079,538.418,0.0
52561.0,STARLINK-3955,PAYLOAD,2024-03-25 18:16:13,15.08838922,0.0001632,53.216,99.0681,89.5697,270.5482,0.0017553,0.00027757,0.0,0 STARLINK-3955,1 52561U 22051AE  24085.76126208  .00027757  00000-0  17553-2 0  9991,2 52561  53.2160  99.0681 0001632  89.5697 270.5482 15.08838922103599,6917.884,95.438,540.878,538.62,0.0
52561.0,STARLINK-3955,PAYLOAD,2024-03-26 05:23:55,15.08833805,0.000237,53.2163,96.9831,98.5306,261.5954,0.0016661,0.00026323,0.0,0 STARLINK-3955,1 52561U 22051AE  24086.22495065  .00026323  00000-0  16661-2 0  9990,2 52561  53.2163  96.9831 0002370  98.5306 261.5954 15.08833805103737,6917.899,95.438,541.404,538.125,0.0
52561.0,STARLINK-3955,PAYLOAD,2024-03-26 10:10:05,15.08831855,0.0001579,53.215,96.0916,106.3939,253.7227,0.00078867,0.00012283,0.0,0 STARLINK-3955,1 52561U 22051AE  24086.42366980  .00012283  00000-0  78867-3 0  9992,2 52561  53.2150  96.0916 0001579 106.3939 253.7227 15.08831855103760,6917.905,95.438,540.863,538.678,0.0
52561.0,STARLINK-3955,PAYLOAD,2024-03-26 18:07:00,15.0883698,0.0001603,53.216,94.6058,102.756,257.3612,0.00078943,0.00012297,0.0,0 STARLINK-3955,1 52561U 22051AE  24086.75487119  .00012297  00000-0  78943-3 0  9996,2 52561  53.2160  94.6058 0001603 102.7560 257.3612 15.08836980103740,6917.89,95.438,540.864,538.646,0.0
52561.0,STARLINK-3955,PAYLOAD,2024-03-27 10:00:51,15.08873122,0.0001487,53.2152,91.6341,93.6759,266.4403,0.001506,0.00023783,0.0,0 STARLINK-3955,1 52561U 22051AE  24087.41726296  .00023783  00000-0  15060-2 0  9994,2 52561  53.2152  91.6341 0001487  93.6759 266.4403 15.08873122103918,6917.779,95.435,540.673,538.615,0.0
52561.0,STARLINK-3955,PAYLOAD,2024-03-28 05:05:29,15.08855887,0.0001291,53.2156,88.0651,97.0578,263.0561,0.0011125,0.00017469,0.0,0 STARLINK-3955,1 52561U 22051AE  24088.21214122  .00017469  00000-0  11125-2 0  9995,2 52561  53.2156  88.0651 0001291  97.0578 263.0561 15.08855887104036,6917.832,95.437,540.59,538.804,0.0
52561.0,STARLINK-3955,PAYLOAD,2024-03-28 09:51:38,15.08861489,0.0001278,53.2156,87.173,90.6906,269.4233,0.00077306,0.00012044,0.0,0 STARLINK-3955,1 52561U 22051AE  24088.41085893  .00012044  00000-0  77306-3 0  9996,2 52561  53.2156  87.1730 0001278  90.6906 269.4233 15.08861489103998,6917.815,95.436,540.564,538.796,0.0
52561.0,STARLINK-3955,PAYLOAD,2024-03-29 04:56:15,15.08848789,0.0001323,53.2157,83.6025,89.4091,270.7052,0.00033762,5.091e-05,0.0,0 STARLINK-3955,1 52561U 22051AE  24089.20573872  .00005091  00000-0  33762-3 0  9995,2 52561  53.2157  83.6025 0001323  89.4091 270.7052 15.08848789104183,6917.854,95.437,540.634,538.803,0.0
52561.0,STARLINK-3955,PAYLOAD,2024-03-29 06:31:38,15.08851567,0.0001302,53.2155,83.3054,90.372,269.7421,0.00033119,4.989e-05,0.0,0 STARLINK-3955,1 52561U 22051AE  24089.27197744  .00004989  00000-0  33119-3 0  9993,2 52561  53.2155  83.3054 0001302  90.3720 269.7421 15.08851567104127,6917.845,95.437,540.611,538.809,0.0
52561.0,STARLINK-3955,PAYLOAD,2024-03-29 16:03:57,15.08845345,0.0001338,53.2162,81.523,93.9724,266.1421,0.00020336,2.951e-05,0.0,0 STARLINK-3955,1 52561U 22051AE  24089.66941794  .00002951  00000-0  20336-3 0  9992,2 52561  53.2162  81.5230 0001338  93.9724 266.1421 15.08845345104187,6917.864,95.437,540.655,538.803,0.0
52561.0,STARLINK-3955,PAYLOAD,2024-03-30 04:47:04,15.08815782,0.0001489,53.2171,79.1438,81.3546,278.7615,-0.00035997,-6.008e-05,0.0,0 STARLINK-3955,1 52561U 22051AE  24090.19935481 -.00006008  00000-0 -35997-3 0  9996,2 52561  53.2171  79.1438 0001489  81.3546 278.7615 15.08815782104333,6917.954,95.439,540.849,538.789,0.0
52561.0,STARLINK-3955,PAYLOAD,2024-03-30 06:22:27,15.0882017,0.0001398,53.2177,78.8486,93.2407,266.8745,-0.00026755,-4.541e-05,0.0,0 STARLINK-3955,1 52561U 22051AE  24090.26559343 -.00004541  00000-0 -26755-3 0  9995,2 52561  53.2177  78.8486 0001398  93.2407 266.8745 15.08820170104277,6917.941,95.439,540.773,538.839,0.0
52561.0,STARLINK-3955,PAYLOAD,2024-03-31 04:37:51,15.08837763,0.0001362,53.2173,74.686,96.9558,263.1589,0.00054743,8.435e-05,0.0,0 STARLINK-3955,1 52561U 22051AE  24091.19296159  .00008435  00000-0  54743-3 0  9993,2 52561  53.2173  74.6860 0001362  96.9558 263.1589 15.08837763104486,6917.887,95.438,540.694,538.81,0.0
